{
  "type": "FeatureCollection",
  "crs": {
    "type": "name",
    "properties": {
      "name": "urn:ogc:def:crs:OGC:1.3:CRS84"
    }
  },
  "features": [
    {
      "type": "Feature",
      "id": "AP_KRI_PARCEL_101",
      "properties": {
        "parcel_id": "AP_KRI_PARCEL_101",
        "crop_type": "Paddy / Rice (Kharif)",
        "farmer_name": "Rao, Venkateshwarlu",
        "district": "Krishna",
        "state": "Andhra Pradesh",
        "area_sq_meters": 241867.75,
        "area_hectares": 24.187,
        "area_acres": 59.767,
        "perimeter_meters": 1975.98,
        "sr_confidence_score": 0.94,
        "scheme_relevance": "PMFBY / FASAL / Krishi-DSS"
      },
      "geometry": {
        "type": "Polygon",
        "coordinates": [
          [
            [
              80.4312,
              16.3145
            ],
            [
              80.4358,
              16.3148
            ],
            [
              80.4354,
              16.3102
            ],
            [
              80.4309,
              16.3101
            ],
            [
              80.4312,
              16.3145
            ]
          ]
        ]
      }
    },
    {
      "type": "Feature",
      "id": "AP_KRI_PARCEL_102",
      "properties": {
        "parcel_id": "AP_KRI_PARCEL_102",
        "crop_type": "Chilli (Capsicum annuum)",
        "farmer_name": "Lakshmi, K.",
        "district": "Guntur",
        "state": "Andhra Pradesh",
        "area_sq_meters": 243882.29,
        "area_hectares": 24.388,
        "area_acres": 60.264,
        "perimeter_meters": 1985.76,
        "sr_confidence_score": 0.94,
        "scheme_relevance": "PMFBY / FASAL / Krishi-DSS"
      },
      "geometry": {
        "type": "Polygon",
        "coordinates": [
          [
            [
              80.4362,
              16.3149
            ],
            [
              80.441,
              16.3151
            ],
            [
              80.4406,
              16.3108
            ],
            [
              80.4359,
              16.3105
            ],
            [
              80.4362,
              16.3149
            ]
          ]
        ]
      }
    },
    {
      "type": "Feature",
      "id": "AP_KRI_PARCEL_103",
      "properties": {
        "parcel_id": "AP_KRI_PARCEL_103",
        "crop_type": "Cotton / Sugarcane",
        "farmer_name": "Reddy, Srinivasa",
        "district": "Krishna",
        "state": "Andhra Pradesh",
        "area_sq_meters": 341977.95,
        "area_hectares": 34.198,
        "area_acres": 84.505,
        "perimeter_meters": 2380.24,
        "sr_confidence_score": 0.94,
        "scheme_relevance": "PMFBY / FASAL / Krishi-DSS"
      },
      "geometry": {
        "type": "Polygon",
        "coordinates": [
          [
            [
              80.431,
              16.3096
            ],
            [
              80.4375,
              16.3098
            ],
            [
              80.4372,
              16.3054
            ],
            [
              80.4307,
              16.3051
            ],
            [
              80.431,
              16.3096
            ]
          ]
        ]
      }
    },
    {
      "type": "Feature",
      "id": "AP_KRI_PARCEL_104",
      "properties": {
        "parcel_id": "AP_KRI_PARCEL_104",
        "crop_type": "Horticulture / Mango Grove",
        "farmer_name": "Subbarao, M.",
        "district": "Krishna",
        "state": "Andhra Pradesh",
        "area_sq_meters": 232568.39,
        "area_hectares": 23.257,
        "area_acres": 57.469,
        "perimeter_meters": 1939.53,
        "sr_confidence_score": 0.94,
        "scheme_relevance": "PMFBY / FASAL / Krishi-DSS"
      },
      "geometry": {
        "type": "Polygon",
        "coordinates": [
          [
            [
              80.438,
              16.3097
            ],
            [
              80.4428,
              16.3099
            ],
            [
              80.4425,
              16.3058
            ],
            [
              80.4377,
              16.3056
            ],
            [
              80.438,
              16.3097
            ]
          ]
        ]
      }
    }
  ]
}